{"fetched_at":"2026-03-29T02:12:04Z","count":15717,"tles":[{"name":"CHINASAT 9C","line1":"1 64470U 25132A   26083.78357170 -.00000256  00000+0  00000+0 0  9993","line2":"2 64470   0.0154 188.5944 0002611 160.8242 207.1098  1.00270458  3305","category":"Other"}]}